{"fetched_at":"2026-07-20T18:29:26.415Z","source":"https://celestrak.org/NORAD/elements/gp.php?NAME=HULIANWANG&FORMAT=JSON","constellation":"guowang","records":[{"OBJECT_NAME":"HULIANWANG DIGUI-76","OBJECT_ID":"2025-187D","EPOCH":"2026-07-20T05:47:51.361152","CLASSIFICATION_TYPE":"U","MEAN_MOTION":13.29323999,"ECCENTRICITY":0.00000941,"INCLINATION":50.0014,"RA_OF_ASC_NODE":87.445,"ARG_OF_PERICENTER":58.5323,"MEAN_ANOMALY":301.5558,"EPHEMERIS_TYPE":0,"NORAD_CAT_ID":65308,"ELEMENT_SET_NO":999,"REV_AT_EPOCH":4409,"BSTAR":0.000040622039,"MEAN_MOTION_DOT":-0.00000105,"MEAN_MOTION_DDOT":0},{"OBJECT_NAME":"HULIANWANG DIGUI-77","OBJECT_ID":"2025-187E","EPOCH":"2026-07-20T05:35:40.750656","CLASSIFICATION_TYPE":"U","MEAN_MOTION":13.29323882,"ECCENTRICITY":0.00001361,"INCLINATION":50.0049,"RA_OF_ASC_NODE":87.4902,"ARG_OF_PERICENTER":185.612,"MEAN_ANOMALY":174.4751,"EPHEMERIS_TYPE":0,"NORAD_CAT_ID":65309,"ELEMENT_SET_NO":999,"REV_AT_EPOCH":4409,"BSTAR":0.000037691819,"MEAN_MOTION_DOT":-0.00000107,"MEAN_MOTION_DDOT":0},{"OBJECT_NAME":"HULIANWANG DIGUI-78","OBJECT_ID":"2025-187F","EPOCH":"2026-07-20T06:23:57.843744","CLASSIFICATION_TYPE":"U","MEAN_MOTION":13.2932292,"ECCENTRICITY":0.00000848,"INCLINATION":50.0114,"RA_OF_ASC_NODE":87.1761,"ARG_OF_PERICENTER":4.738,"MEAN_ANOMALY":355.3493,"EPHEMERIS_TYPE":0,"NORAD_CAT_ID":65310,"ELEMENT_SET_NO":999,"REV_AT_EPOCH":4410,"BSTAR":0.000047845758,"MEAN_MOTION_DOT":-0.00000102,"MEAN_MOTION_DDOT":0},{"OBJECT_NAME":"HULIANWANG DIGUI-79","OBJECT_ID":"2025-187G","EPOCH":"2026-07-20T05:59:48.374016","CLASSIFICATION_TYPE":"U","MEAN_MOTION":13.29319759,"ECCENTRICITY":0.00001109,"INCLINATION":50.0044,"RA_OF_ASC_NODE":87.5643,"ARG_OF_PERICENTER":347.8877,"MEAN_ANOMALY":12.1992,"EPHEMERIS_TYPE":0,"NORAD_CAT_ID":65311,"ELEMENT_SET_NO":999,"REV_AT_EPOCH":4409,"BSTAR":0.000040321334,"MEAN_MOTION_DOT":-0.00000105,"MEAN_MOTION_DDOT":0},{"OBJECT_NAME":"HULIANWANG DIGUI-80","OBJECT_ID":"2025-187H","EPOCH":"2026-07-20T07:11:56.321952","CLASSIFICATION_TYPE":"U","MEAN_MOTION":13.29322993,"ECCENTRICITY":0.00001187,"INCLINATION":50.0034,"RA_OF_ASC_NODE":87.1407,"ARG_OF_PERICENTER":186.2715,"MEAN_ANOMALY":173.8155,"EPHEMERIS_TYPE":0,"NORAD_CAT_ID":65312,"ELEMENT_SET_NO":999,"REV_AT_EPOCH":4410,"BSTAR":0.000040111274,"MEAN_MOTION_DOT":-0.00000105,"MEAN_MOTION_DDOT":0},{"OBJECT_NAME":"HULIANWANG DIGUI-81","OBJECT_ID":"2025-187J","EPOCH":"2026-07-20T06:48:00.605376","CLASSIFICATION_TYPE":"U","MEAN_MOTION":13.29319765,"ECCENTRICITY":0.00000776,"INCLINATION":50.0074,"RA_OF_ASC_NODE":87.1587,"ARG_OF_PERICENTER":352.6793,"MEAN_ANOMALY":7.4078,"EPHEMERIS_TYPE":0,"NORAD_CAT_ID":65313,"ELEMENT_SET_NO":999,"REV_AT_EPOCH":4411,"BSTAR":0.000041804886,"MEAN_MOTION_DOT":-0.00000105,"MEAN_MOTION_DDOT":0},{"OBJECT_NAME":"HULIANWANG DIGUI-82","OBJECT_ID":"2025-220A","EPOCH":"2026-07-20T00:40:02.897184","CLASSIFICATION_TYPE":"U","MEAN_MOTION":13.24409688,"ECCENTRICITY":0.00022376,"INCLINATION":86.4952,"RA_OF_ASC_NODE":32.7658,"ARG_OF_PERICENTER":98.6499,"MEAN_ANOMALY":261.4889,"EPHEMERIS_TYPE":0,"NORAD_CAT_ID":65817,"ELEMENT_SET_NO":999,"REV_AT_EPOCH":3926,"BSTAR":0.000042958486,"MEAN_MOTION_DOT":3.3e-7,"MEAN_MOTION_DDOT":0},{"OBJECT_NAME":"HULIANWANG DIGUI-83","OBJECT_ID":"2025-220B","EPOCH":"2026-07-20T02:18:03.147264","CLASSIFICATION_TYPE":"U","MEAN_MOTION":13.24409914,"ECCENTRICITY":0.00022507,"INCLINATION":86.4975,"RA_OF_ASC_NODE":32.803,"ARG_OF_PERICENTER":97.8778,"MEAN_ANOMALY":262.2612,"EPHEMERIS_TYPE":0,"NORAD_CAT_ID":65818,"ELEMENT_SET_NO":999,"REV_AT_EPOCH":3927,"BSTAR":0.000035434982,"MEAN_MOTION_DOT":3e-7,"MEAN_MOTION_DDOT":0},{"OBJECT_NAME":"HULIANWANG DIGUI-84","OBJECT_ID":"2025-220C","EPOCH":"2026-07-20T05:44:41.978400","CLASSIFICATION_TYPE":"U","MEAN_MOTION":13.24409699,"ECCENTRICITY":0.00021986,"INCLINATION":86.4912,"RA_OF_ASC_NODE":32.5628,"ARG_OF_PERICENTER":98.2285,"MEAN_ANOMALY":261.9098,"EPHEMERIS_TYPE":0,"NORAD_CAT_ID":65819,"ELEMENT_SET_NO":999,"REV_AT_EPOCH":3929,"BSTAR":0.000015437731,"MEAN_MOTION_DOT":2.1e-7,"MEAN_MOTION_DDOT":0},{"OBJECT_NAME":"HULIANWANG DIGUI-85","OBJECT_ID":"2025-220D","EPOCH":"2026-07-20T05:33:49.328352","CLASSIFICATION_TYPE":"U","MEAN_MOTION":13.24408695,"ECCENTRICITY":0.00021881,"INCLINATION":86.4973,"RA_OF_ASC_NODE":32.7398,"ARG_OF_PERICENTER":100.5992,"MEAN_ANOMALY":259.5389,"EPHEMERIS_TYPE":0,"NORAD_CAT_ID":65820,"ELEMENT_SET_NO":999,"REV_AT_EPOCH":3929,"BSTAR":0.000008858121,"MEAN_MOTION_DOT":1.8e-7,"MEAN_MOTION_DDOT":0},{"OBJECT_NAME":"HULIANWANG DIGUI-86","OBJECT_ID":"2025-220E","EPOCH":"2026-07-20T01:45:33.281568","CLASSIFICATION_TYPE":"U","MEAN_MOTION":13.24411486,"ECCENTRICITY":0.00020352,"INCLINATION":86.4952,"RA_OF_ASC_NODE":32.724,"ARG_OF_PERICENTER":85.0323,"MEAN_ANOMALY":275.1043,"EPHEMERIS_TYPE":0,"NORAD_CAT_ID":65821,"ELEMENT_SET_NO":999,"REV_AT_EPOCH":3927,"BSTAR":-0.000027568367,"MEAN_MOTION_DOT":3e-8,"MEAN_MOTION_DDOT":0},{"OBJECT_NAME":"HULIANWANG DIGUI-87","OBJECT_ID":"2025-231A","EPOCH":"2026-07-20T00:26:40.253280","CLASSIFICATION_TYPE":"U","MEAN_MOTION":13.29328351,"ECCENTRICITY":0.00004627,"INCLINATION":50.0009,"RA_OF_ASC_NODE":58.0802,"ARG_OF_PERICENTER":10.1561,"MEAN_ANOMALY":349.932,"EPHEMERIS_TYPE":0,"NORAD_CAT_ID":65995,"ELEMENT_SET_NO":999,"REV_AT_EPOCH":3725,"BSTAR":0.000033141243,"MEAN_MOTION_DOT":-0.00000109,"MEAN_MOTION_DDOT":0},{"OBJECT_NAME":"HULIANWANG DIGUI-88","OBJECT_ID":"2025-231B","EPOCH":"2026-07-19T21:02:14.238816","CLASSIFICATION_TYPE":"U","MEAN_MOTION":13.29323925,"ECCENTRICITY":0.00004781,"INCLINATION":49.9996,"RA_OF_ASC_NODE":58.6359,"ARG_OF_PERICENTER":352.1719,"MEAN_ANOMALY":7.9146,"EPHEMERIS_TYPE":0,"NORAD_CAT_ID":65996,"ELEMENT_SET_NO":999,"REV_AT_EPOCH":3723,"BSTAR":0.000037664733,"MEAN_MOTION_DOT":-0.00000107,"MEAN_MOTION_DDOT":0},{"OBJECT_NAME":"HULIANWANG DIGUI-89","OBJECT_ID":"2025-231C","EPOCH":"2026-07-20T00:14:36.854592","CLASSIFICATION_TYPE":"U","MEAN_MOTION":13.29328211,"ECCENTRICITY":0.00005247,"INCLINATION":49.9973,"RA_OF_ASC_NODE":57.961,"ARG_OF_PERICENTER":359.6247,"MEAN_ANOMALY":0.4625,"EPHEMERIS_TYPE":0,"NORAD_CAT_ID":65997,"ELEMENT_SET_NO":999,"REV_AT_EPOCH":3725,"BSTAR":0.000029889277,"MEAN_MOTION_DOT":-0.0000011,"MEAN_MOTION_DDOT":0},{"OBJECT_NAME":"HULIANWANG DIGUI-90","OBJECT_ID":"2025-231D","EPOCH":"2026-07-19T20:26:10.623840","CLASSIFICATION_TYPE":"U","MEAN_MOTION":13.29326593,"ECCENTRICITY":0.00005025,"INCLINATION":50.0003,"RA_OF_ASC_NODE":58.5206,"ARG_OF_PERICENTER":353.0951,"MEAN_ANOMALY":6.9914,"EPHEMERIS_TYPE":0,"NORAD_CAT_ID":65998,"ELEMENT_SET_NO":999,"REV_AT_EPOCH":3723,"BSTAR":0.000030068972,"MEAN_MOTION_DOT":-0.0000011,"MEAN_MOTION_DDOT":0},{"OBJECT_NAME":"HULIANWANG DIGUI-91","OBJECT_ID":"2025-231E","EPOCH":"2026-07-19T22:02:23.893440","CLASSIFICATION_TYPE":"U","MEAN_MOTION":13.29327194,"ECCENTRICITY":0.00004947,"INCLINATION":50.0021,"RA_OF_ASC_NODE":58.2506,"ARG_OF_PERICENTER":355.1163,"MEAN_ANOMALY":4.9704,"EPHEMERIS_TYPE":0,"NORAD_CAT_ID":65999,"ELEMENT_SET_NO":999,"REV_AT_EPOCH":3724,"BSTAR":0.000025013639,"MEAN_MOTION_DOT":-0.00000112,"MEAN_MOTION_DDOT":0}]}
