HULIANWANG DIGUI-76     
1 65308U 25187D   26201.24156668 -.00000105  00000+0  40622-4 0  9998
2 65308  50.0014  87.4450 0000094  58.5323 301.5558 13.29323999 44095
HULIANWANG DIGUI-77     
1 65309U 25187E   26201.23311054 -.00000107  00000+0  37692-4 0  9995
2 65309  50.0049  87.4902 0000136 185.6120 174.4751 13.29323882 44093
HULIANWANG DIGUI-78     
1 65310U 25187F   26201.26664171 -.00000102  00000+0  47846-4 0  9998
2 65310  50.0114  87.1761 0000084   4.7380 355.3493 13.29322920 44106
HULIANWANG DIGUI-79     
1 65311U 25187G   26201.24986544 -.00000105  00000+0  40321-4 0  9992
2 65311  50.0044  87.5643 0000110 347.8877  12.1992 13.29319759 44090
HULIANWANG DIGUI-80     
1 65312U 25187H   26201.29995743 -.00000105  00000+0  40111-4 0  9996
2 65312  50.0034  87.1407 0000118 186.2715 173.8155 13.29322993 44100
HULIANWANG DIGUI-81     
1 65313U 25187J   26201.28334034 -.00000105  00000+0  41805-4 0  9997
2 65313  50.0074  87.1587 0000077 352.6793   7.4078 13.29319765 44113
HULIANWANG DIGUI-82     
1 65817U 25220A   26201.02781131  .00000033  00000+0  42958-4 0  9999
2 65817  86.4952  32.7658 0002237  98.6499 261.4889 13.24409688 39266
HULIANWANG DIGUI-83     
1 65818U 25220B   26201.09586976  .00000030  00000+0  35435-4 0  9996
2 65818  86.4975  32.8030 0002250  97.8778 262.2612 13.24409914 39279
HULIANWANG DIGUI-84     
1 65819U 25220C   26201.23937475  .00000021  00000+0  15438-4 0  9998
2 65819  86.4912  32.5628 0002198  98.2285 261.9098 13.24409699 39296
HULIANWANG DIGUI-85     
1 65820U 25220D   26201.23182093  .00000018  00000+0  88581-5 0  9994
2 65820  86.4973  32.7398 0002188 100.5992 259.5389 13.24408695 39293
HULIANWANG DIGUI-86     
1 65821U 25220E   26201.07330187  .00000003  00000+0 -27568-4 0  9998
2 65821  86.4952  32.7240 0002035  85.0323 275.1043 13.24411486 39274
HULIANWANG DIGUI-87     
1 65995U 25231A   26201.01852145 -.00000109  00000+0  33141-4 0  9990
2 65995  50.0009  58.0802 0000462  10.1561 349.9320 13.29328351 37253
HULIANWANG DIGUI-88     
1 65996U 25231B   26200.87655369 -.00000107  00000+0  37665-4 0  9996
2 65996  49.9996  58.6359 0000478 352.1719   7.9146 13.29323925 37237
HULIANWANG DIGUI-89     
1 65997U 25231C   26201.01014878 -.00000110  00000+0  29889-4 0  9991
2 65997  49.9973  57.9610 0000524 359.6247   0.4625 13.29328211 37250
HULIANWANG DIGUI-90     
1 65998U 25231D   26200.85151185 -.00000110  00000+0  30069-4 0  9998
2 65998  50.0003  58.5206 0000502 353.0951   6.9914 13.29326593 37233
HULIANWANG DIGUI-91     
1 65999U 25231E   26200.91833210 -.00000112  00000+0  25014-4 0  9998
2 65999  50.0021  58.2506 0000494 355.1163   4.9704 13.29327194 37246
